ONEWEB-0116             
1 48046U 21025E   26002.97360135  .00000071  00000+0  16066-3 0  9995
2 48046  87.8989 353.0428 0001805  83.9331 276.2004 13.13469223231965
ONEWEB-0150             
1 48047U 21025F   26002.94990267  .00000268  00000+0  69900-3 0  9991
2 48047  87.8990 353.0435 0001791  93.2324 266.9010 13.13470160231859
ONEWEB-0107             
1 48048U 21025G   26002.95159812  .00000317  00000+0  83322-3 0  9995
2 48048  87.8990 353.0395 0001482  92.0728 268.0570 13.13468605231830
ONEWEB-0101             
1 48049U 21025H   26002.91434362 -.00000225  00000+0 -65013-3 0  9995
2 48049  87.8983 353.0783 0001551  85.1181 275.0125 13.13469283231801
ONEWEB-0113             
1 48050U 21025J   26002.92234819 -.00000185  00000+0 -53847-3 0  9990
2 48050  87.8986 353.0029 0001923  86.1588 273.9761 13.13986744231904
ONEWEB-0112             
1 48051U 21025K   26002.95666953  .00000417  00000+0  11062-2 0  9990
2 48051  87.8990 353.0358 0001720  88.8873 271.2453 13.13468398231905
ONEWEB-0156             
1 48052U 21025L   26002.96514526  .00000239  00000+0  61832-3 0  9993
2 48052  87.8988 353.0455 0001621  91.1447 268.9868 13.13469580231889
ONEWEB-0161             
1 48053U 21025M   26002.93974586  .00000062  00000+0  13528-3 0  9990
2 48053  87.8982 353.0648 0001588  93.3952 266.7359 13.13469653231810
